NORAD_CAT_ID,OBJECT_NAME,OBJECT_TYPE,EPOCH,MEAN_MOTION,ECCENTRICITY,INCLINATION,RA_OF_ASC_NODE,ARG_OF_PERICENTER,MEAN_ANOMALY,BSTAR,MEAN_MOTION_DOT,MEAN_MOTION_DDOT,TLE_LINE0,TLE_LINE1,TLE_LINE2,SEMIMAJOR_AXIS,PERIOD,APOGEE,PERIGEE,DECAYED
51742.0,STARLINK-3521,PAYLOAD,2024-03-12 04:42:42,15.08844151,0.0001257,53.2178,345.1592,102.5623,257.551,9.5583e-06,-1.36e-06,0.0,0 STARLINK-3521,1 51742U 22016AE  24072.19632592 -.00000136  00000-0  95583-5 0  9998,2 51742  53.2178 345.1592 0001257 102.5623 257.5510 15.08844151114862,6917.868,95.437,540.602,538.863,0.0
51742.0,STARLINK-3521,PAYLOAD,2024-03-12 11:04:14,15.08848926,0.0001306,53.2182,343.9694,88.2492,271.865,6.6074e-05,7.64e-06,0.0,0 STARLINK-3521,1 51742U 22016AE  24072.46128183  .00000764  00000-0  66074-4 0  9992,2 51742  53.2182 343.9694 0001306  88.2492 271.8650 15.08848926113772,6917.853,95.437,540.622,538.815,0.0
51742.0,STARLINK-3521,PAYLOAD,2024-03-13 02:58:07,15.0883453,0.0001452,53.2187,340.9958,83.0622,277.0535,0.00013966,1.935e-05,0.0,0 STARLINK-3521,1 51742U 22016AE  24073.12369225  .00001935  00000-0  13966-3 0  9992,2 51742  53.2187 340.9958 0001452  83.0622 277.0535 15.08834530115001,6917.897,95.438,540.767,538.758,0.0
51742.0,STARLINK-3521,PAYLOAD,2024-03-13 10:55:01,15.08856424,0.0001359,53.2182,339.5093,81.4287,278.6859,0.00018067,2.59e-05,0.0,0 STARLINK-3521,1 51742U 22016AE  24073.45487854  .00002590  00000-0  18067-3 0  9992,2 51742  53.2182 339.5093 0001359  81.4287 278.6859 15.08856424115052,6917.83,95.437,540.635,538.755,0.0
51742.0,STARLINK-3521,PAYLOAD,2024-03-13 22:02:45,15.08835572,0.0001656,53.2174,337.4277,83.4597,276.6583,-2.1948e-05,-6.37e-06,0.0,0 STARLINK-3521,1 51742U 22016AE  24073.91857678 -.00000637  00000-0 -21948-4 0  9993,2 51742  53.2174 337.4277 0001656  83.4597 276.6583 15.08835572113994,6917.894,95.438,540.905,538.613,0.0
51742.0,STARLINK-3521,PAYLOAD,2024-03-14 01:13:31,15.08836824,0.0001549,53.2184,336.8331,82.4368,277.68,-6.5845e-06,-3.93e-06,0.0,0 STARLINK-3521,1 51742U 22016AE  24074.05105575 -.00000393  00000-0 -65845-5 0  9995,2 51742  53.2184 336.8331 0001549  82.4368 277.6800 15.08836824115148,6917.89,95.438,540.827,538.684,0.0
51742.0,STARLINK-3521,PAYLOAD,2024-03-14 21:53:31,15.0883701,0.0001104,53.219,332.964,86.8208,273.2911,0.00013705,1.894e-05,0.0,0 STARLINK-3521,1 51742U 22016AE  24074.91217103  .00001894  00000-0  13705-3 0  9992,2 51742  53.2190 332.9640 0001104  86.8208 273.2911 15.08837010114145,6917.89,95.438,540.518,538.991,0.0
51742.0,STARLINK-3521,PAYLOAD,2024-03-14 23:28:54,15.08844705,0.0001555,53.2188,332.6682,84.0233,276.0936,3.4821e-05,2.66e-06,0.0,0 STARLINK-3521,1 51742U 22016AE  24074.97841074  .00000266  00000-0  34821-4 0  9993,2 51742  53.2188 332.6682 0001555  84.0233 276.0936 15.08844705115286,6917.866,95.437,540.807,538.655,0.0
51742.0,STARLINK-3521,PAYLOAD,2024-03-15 16:58:09,15.08838709,0.0001639,53.2189,329.3971,85.3923,274.7256,0.00019951,2.888e-05,0.0,0 STARLINK-3521,1 51742U 22016AE  24075.70705002  .00002888  00000-0  19951-3 0  9993,2 51742  53.2189 329.3971 0001639  85.3923 274.7256 15.08838709114268,6917.884,95.438,540.883,538.615,0.0
51742.0,STARLINK-3521,PAYLOAD,2024-03-15 23:19:41,15.08841408,0.0001487,53.2175,328.2056,90.2367,269.8795,0.00014766,2.063e-05,0.0,0 STARLINK-3521,1 51742U 22016AE  24075.97201140  .00002063  00000-0  14766-3 0  9990,2 51742  53.2175 328.2056 0001487  90.2367 269.8795 15.08841408114301,6917.876,95.437,540.77,538.712,0.0
51742.0,STARLINK-3521,PAYLOAD,2024-03-16 19:59:42,15.08841113,0.0001411,53.2169,324.3409,100.2626,259.8525,5.9734e-05,6.63e-06,0.0,0 STARLINK-3521,1 51742U 22016AE  24076.83313110  .00000663  00000-0  59734-4 0  9996,2 51742  53.2169 324.3409 0001411 100.2626 259.8525 15.08841113115562,6917.877,95.437,540.718,538.766,0.0
51742.0,STARLINK-3521,PAYLOAD,2024-03-16 21:35:05,15.08841279,0.0001405,53.2178,324.0436,104.4653,255.6495,5.9218e-05,6.55e-06,0.0,0 STARLINK-3521,1 51742U 22016AE  24076.89937116  .00000655  00000-0  59218-4 0  9998,2 51742  53.2178 324.0436 0001405 104.4653 255.6495 15.08841279114447,6917.876,95.437,540.713,538.77,0.0
51742.0,STARLINK-3521,PAYLOAD,2024-03-16 23:10:28,15.08840894,0.0001344,53.2176,323.747,99.9839,260.1305,4.7238e-05,4.64e-06,0.0,0 STARLINK-3521,1 51742U 22016AE  24076.96561167  .00000464  00000-0  47238-4 0  9992,2 51742  53.2176 323.7470 0001344  99.9839 260.1305 15.08840894114459,6917.878,95.437,540.672,538.813,0.0
51742.0,STARLINK-3521,PAYLOAD,2024-03-17 21:25:52,15.08838942,0.0001319,53.2178,319.5855,96.8784,263.2358,6.1861e-05,6.97e-06,0.0,0 STARLINK-3521,1 51742U 22016AE  24077.89297220  .00000697  00000-0  61861-4 0  9997,2 51742  53.2178 319.5855 0001319  96.8784 263.2358 15.08838942115722,6917.884,95.438,540.661,538.836,0.0
51742.0,STARLINK-3521,PAYLOAD,2024-03-17 23:01:15,15.08838599,0.000129,53.2176,319.2885,94.0209,266.0931,5.7493e-05,6.27e-06,0.0,0 STARLINK-3521,1 51742U 22016AE  24077.95921262  .00000627  00000-0  57493-4 0  9993,2 51742  53.2176 319.2885 0001290  94.0209 266.0931 15.08838599114602,6917.885,95.438,540.642,538.857,0.0
51742.0,STARLINK-3521,PAYLOAD,2024-03-18 16:30:30,15.08838298,0.0001278,53.2175,316.0173,93.2042,266.9096,6.7027e-05,7.79e-06,0.0,0 STARLINK-3521,1 51742U 22016AE  24078.68785341  .00000779  00000-0  67027-4 0  9992,2 51742  53.2175 316.0173 0001278  93.2042 266.9096 15.08838298114717,6917.886,95.438,540.635,538.866,0.0
51742.0,STARLINK-3521,PAYLOAD,2024-03-19 00:27:26,15.088387,0.0001251,53.2175,314.5316,88.1628,271.9508,5.8331e-05,6.41e-06,0.0,0 STARLINK-3521,1 51742U 22016AE  24079.01905398  .00000641  00000-0  58331-4 0  9992,2 51742  53.2175 314.5316 0001251  88.1628 271.9508 15.08838700115895,6917.884,95.438,540.615,538.884,0.0
51742.0,STARLINK-3521,PAYLOAD,2024-03-20 00:18:12,15.08849124,0.0001251,53.2176,310.07,93.3936,266.7199,0.00014391,2.004e-05,0.0,0 STARLINK-3521,1 51742U 22016AE  24080.01264513  .00002004  00000-0  14391-3 0  9993,2 51742  53.2176 310.0700 0001251  93.3936 266.7199 15.08849124116042,6917.853,95.437,540.583,538.852,0.0
51742.0,STARLINK-3521,PAYLOAD,2024-03-20 20:58:14,15.08839204,0.0001413,53.218,306.2021,133.7064,226.4046,3.295e-05,2.36e-06,0.0,0 STARLINK-3521,1 51742U 22016AE  24080.87377392  .00000236  00000-0  32950-4 0  9994,2 51742  53.2180 306.2021 0001413 133.7064 226.4046 15.08839204116177,6917.883,95.438,540.725,538.77,0.0
51742.0,STARLINK-3521,PAYLOAD,2024-03-20 22:33:37,15.08835684,0.0001071,53.217,305.9067,108.1312,251.9796,1.7723e-05,-6e-08,0.0,0 STARLINK-3521,1 51742U 22016AE  24080.94001832 -.00000006  00000-0  17723-4 0  9992,2 51742  53.2170 305.9067 0001071 108.1312 251.9796 15.08835684115053,6917.894,95.438,540.499,539.018,0.0
51742.0,STARLINK-3521,PAYLOAD,2024-03-21 00:09:00,15.08834849,0.0001046,53.2168,305.6085,81.3085,278.8026,2.0307e-05,3.5e-07,0.0,0 STARLINK-3521,1 51742U 22016AE  24081.00625986  .00000035  00000-0  20307-4 0  9995,2 51742  53.2168 305.6085 0001046  81.3085 278.8026 15.08834849116190,6917.896,95.438,540.485,539.038,0.0
51742.0,STARLINK-3521,PAYLOAD,2024-03-21 08:05:56,15.08837399,0.0001098,53.2171,304.1209,78.6791,281.4324,2.1803e-05,5.9e-07,0.0,0 STARLINK-3521,1 51742U 22016AE  24081.33745923  .00000059  00000-0  21803-4 0  9993,2 51742  53.2171 304.1209 0001098  78.6791 281.4324 15.08837399115111,6917.888,95.438,540.513,538.994,0.0
51742.0,STARLINK-3521,PAYLOAD,2024-03-21 22:24:25,15.08829832,0.000119,53.2176,301.4426,78.4568,281.6558,-5.3729e-05,-1.143e-05,0.0,0 STARLINK-3521,1 51742U 22016AE  24081.93362928 -.00001143  00000-0 -53729-4 0  9998,2 51742  53.2176 301.4426 0001190  78.4568 281.6558 15.08829832115204,6917.911,95.438,540.6,538.953,0.0
51742.0,STARLINK-3521,PAYLOAD,2024-03-22 20:39:49,15.08841043,0.0001115,53.2164,297.2799,98.8635,261.2483,5.8815e-05,6.48e-06,0.0,0 STARLINK-3521,1 51742U 22016AE  24082.86098491  .00000648  00000-0  58815-4 0  9990,2 51742  53.2164 297.2799 0001115  98.8635 261.2483 15.08841043116473,6917.877,95.437,540.514,538.971,0.0
51742.0,STARLINK-3521,PAYLOAD,2024-03-23 20:30:36,15.08849951,0.000119,53.2154,292.8257,74.8882,285.2241,0.00039787,6.052e-05,0.0,0 STARLINK-3521,1 51742U 22016AE  24083.85458530  .00006052  00000-0  39787-3 0  9995,2 51742  53.2154 292.8257 0001190  74.8882 285.2241 15.08849951115498,6917.85,95.437,540.538,538.892,0.0
51742.0,STARLINK-3521,PAYLOAD,2024-03-23 23:41:22,15.08854207,0.0001274,53.2157,292.2236,73.329,286.7842,0.00044443,6.795e-05,0.0,0 STARLINK-3521,1 51742U 22016AE  24083.98706265  .00006795  00000-0  44443-3 0  9999,2 51742  53.2157 292.2236 0001274  73.3290 286.7842 15.08854207116643,6917.837,95.437,540.583,538.821,0.0
51742.0,STARLINK-3521,PAYLOAD,2024-03-24 20:21:23,15.08849268,0.000116,53.2157,288.3616,86.6474,273.4651,0.000106,1.4e-05,0.0,0 STARLINK-3521,1 51742U 22016AE  24084.84818420  .00001400  00000-0  10600-3 0  9998,2 51742  53.2157 288.3616 0001160  86.6474 273.4651 15.08849268116772,6917.852,95.437,540.52,538.915,0.0
51742.0,STARLINK-3521,PAYLOAD,2024-03-25 20:12:09,15.08850758,0.0001437,53.2165,283.9048,93.7146,266.4011,9.5335e-05,1.23e-05,0.0,0 STARLINK-3521,1 51742U 22016AE  24085.84177803  .00001230  00000-0  95335-4 0  9992,2 51742  53.2165 283.9048 0001437  93.7146 266.4011 15.08850758115792,6917.848,95.437,540.707,538.718,0.0
51742.0,STARLINK-3521,PAYLOAD,2024-03-26 13:41:24,15.08822378,0.0001277,53.2158,280.6288,79.3557,280.7578,-0.00026119,-4.44e-05,0.0,0 STARLINK-3521,1 51742U 22016AE  24086.57042752 -.00004440  00000-0 -26119-3 0  9998,2 51742  53.2158 280.6288 0001277  79.3557 280.7578 15.08822378117035,6917.934,95.439,540.683,538.916,0.0
51742.0,STARLINK-3521,PAYLOAD,2024-03-26 18:27:34,15.08826833,0.0001315,53.2156,279.7376,86.9505,273.1638,-4.4491e-05,-9.96e-06,0.0,0 STARLINK-3521,1 51742U 22016AE  24086.76914904 -.00000996  00000-0 -44491-4 0  9992,2 51742  53.2156 279.7376 0001315  86.9505 273.1638 15.08826833115930,6917.921,95.438,540.695,538.876,0.0
